STARLINK-4499           
1 53402U 22097Q   26068.53207007  .00001743  00000+0  12757-3 0  9999
2 53402  53.2177 124.8293 0001551  80.9527 279.1641 15.08838565198493
LEMUR-2-AHMED-ASRAR     
1 60576U 24149DN  26068.73265438  .00013045  00000+0  79773-3 0  9992
2 60576  97.7021 152.9847 0001633  18.5035 341.6253 15.10376432 85541
