[{"OBJECT_NAME":"STARLINK-4499","OBJECT_ID":"2022-097Q","EPOCH":"2026-03-09T12:46:10.854048","MEAN_MOTION":15.08838565,"ECCENTRICITY":0.00015516,"INCLINATION":53.2177,"RA_OF_ASC_NODE":124.8293,"ARG_OF_PERICENTER":80.9527,"MEAN_ANOMALY":279.1641,"EPHEMERIS_TYPE":0,"CLASSIFICATION_TYPE":"U","NORAD_CAT_ID":53402,"ELEMENT_SET_NO":999,"REV_AT_EPOCH":19849,"BSTAR":0.00012756868,"MEAN_MOTION_DOT":1.743e-5,"MEAN_MOTION_DDOT":0},{"OBJECT_NAME":"LEMUR-2-AHMED-ASRAR","OBJECT_ID":"2024-149DN","EPOCH":"2026-03-09T17:35:01.338432","MEAN_MOTION":15.10376432,"ECCENTRICITY":0.00016334,"INCLINATION":97.7021,"RA_OF_ASC_NODE":152.9847,"ARG_OF_PERICENTER":18.5035,"MEAN_ANOMALY":341.6253,"EPHEMERIS_TYPE":0,"CLASSIFICATION_TYPE":"U","NORAD_CAT_ID":60576,"ELEMENT_SET_NO":999,"REV_AT_EPOCH":8554,"BSTAR":0.0007977347,"MEAN_MOTION_DOT":0.00013045,"MEAN_MOTION_DDOT":0}]
